ONEWEB-0346             
1 49212U 21083AC  23309.31641808  .00000058  00000+0  11362-3 0  9998
2 49212  87.9239 165.4106 0001960  90.7886 269.3470 13.18687518105426
ONEWEB-0348             
1 49213U 21083AD  23308.89780710  .00000032  00000+0  47740-4 0  9999
2 49213  87.9148 104.6248 0002044 114.8660 245.2686 13.20772013110718
ONEWEB-0350             
1 49214U 21083AE  23309.30935831  .00000144  00000+0  35889-3 0  9997
2 49214  87.8934 150.2307 0001604  98.5880 261.5430 13.13469249106884
ONEWEB-0351             
1 49215U 21083AF  23308.89148721  .00000021  00000+0  20616-4 0  9992
2 49215  87.9154 104.6276 0001138  85.7094 274.4170 13.20770383110673
ONEWEB-0352             
1 49216U 21083AG  23309.51885094 -.00000165  00000+0 -48773-3 0  9998
2 49216  87.8994 150.2141 0001327  73.6830 286.4445 13.13468091107000
ONEWEB-0354             
1 49217U 21083AH  23309.14400441  .00000023  00000+0  25136-4 0  9997
2 49217  87.9151 104.5585 0001379 106.9160 253.2124 13.20773030112051
ONEWEB-0355             
1 49218U 21083AJ  23308.94116928  .00000446  00000+0  11865-2 0  9990
2 49218  87.8996 150.3289 0001332  84.9216 275.2066 13.13471244105509
ONEWEB-0357             
1 49219U 21083AK  23309.51859528  .00000103  00000+0  22185-3 0  9993
2 49219  87.9155 104.5045 0001555  97.2821 262.8489 13.20772152112098
